HORIZONS-3E             
1 43633U 18074B   24302.09656160 -.00000028  00000+0  00000+0 0  9992
2 43633   0.0123 216.5814 0001472  52.4768 331.6632  1.00272808 22354
AEHF-4 (USA 288)        
1 43651U 18079A   24303.55133131 -.00000269  00000+0  00000+0 0  9994
2 43651   1.6106 335.9827 0053568   6.3098 187.0751  1.00274040 22321
BEIDOU-3 G1             
1 43683U 18085A   24303.52965830 -.00000267  00000+0  00000+0 0  9990
2 43683   2.5208 104.7204 0001724  46.3121 218.0187  1.00268309 22080
GSAT-29                 
1 43698U 18089A   24302.50286073  .00000089  00000+0  00000+0 0  9993
2 43698   0.0689  90.2752 0002928 131.9859  51.1958  1.00271658 21807
ES'HAIL 2               
1 43700U 18090A   24303.56992373  .00000153  00000+0  00000+0 0  9995
2 43700   0.0141 260.1009 0001501 353.2050  16.0853  1.00272648 21708
GEO-KOMPSAT-2A          
1 43823U 18100A   24303.18521573 -.00000337  00000+0  00000+0 0  9996
2 43823   0.0607  67.0068 0001016  70.4270  95.5401  1.00270674 21655
GSAT-11                 
1 43824U 18100B   24303.56854887 -.00000068  00000+0  00000+0 0  9997
2 43824   0.0383 267.6739 0003632 223.2511 186.1180  1.00272683 21510
GSAT-7A                 
1 43864U 18105A   24303.57375566  .00000034  00000+0  00000+0 0  9991
2 43864   0.0546  76.1304 0002443 150.1093  81.5448  1.00274779 21476
COSMOS 2533             
1 43867U 18107A   24302.64881986 -.00000034  00000+0  00000+0 0  9992
2 43867   0.0444  83.8848 0000171 331.0805 286.1183  1.00273075 21456
TJS-3                   
1 43874U 18110A   24303.58265153  .00000018  00000+0  00000+0 0  9991
2 43874   0.9993  87.4226 0005277 152.6256 181.6188  1.00279794 21448
ZHONGXING-2D            
1 43920U 19001A   24303.53521544 -.00000328  00000+0  00000+0 0  9992
2 43920   0.0369  20.7100 0003637 231.4807 108.8454  1.00274883 48108
HELLAS-SAT 4 & SGS-1    
1 44034U 19007A   24302.49964615  .00000157  00000+0  00000+0 0  9998
2 44034   0.0704 118.1221 0005810  50.8657  87.2292  1.00272645 21368
GSAT-31                 
1 44035U 19007B   24302.57271258  .00000129  00000+0  00000+0 0  9991
2 44035   0.0747 264.1251 0006128 333.4916  53.8779  1.00274522 20984
NUSANTARA SATU          
1 44048U 19009A   24302.80685539 -.00000228  00000+0  00000+0 0  9995
2 44048   0.0313 137.5388 0003546  27.1055 309.4939  1.00273072 20788
ZHONGXING-6C            
1 44067U 19012A   24303.53486822 -.00000326  00000+0  00000+0 0  9994
2 44067   0.0574  74.5940 0001375  24.0716 262.7037  1.00272168 20763
WGS 10 (USA 291)        
1 44071U 19014A   24303.00486024  .00000053  00000+0  00000+0 0  9993
2 44071   0.0169 222.8035 0000216  59.4507 177.6422  1.00269389 20655
TIANLIAN 2-01           
1 44076U 19017A   24303.56854887 -.00000098  00000+0  00000+0 0  9998
2 44076   0.0466 104.3216 0002281 143.2623  72.5454  1.00272463 20677
ARABSAT-6A              
1 44186U 19021A   24301.71141979  .00000154  00000+0  00000+0 0  9993
2 44186   0.0467  19.3445 0007227 228.6902  75.1629  1.00274259 20164
BEIDOU-3 IGSO-1         
1 44204U 19023A   24302.68799313 -.00000227  00000+0  00000+0 0  9996
2 44204  57.8425  43.8332 0024943 209.2166 150.4943  1.00261977  1222
BEIDOU-2 G8             
1 44231U 19027A   24303.58867885 -.00000236  00000+0  00000+0 0  9990
2 44231   1.8085  74.5623 0003994 188.5385 131.7256  1.00276073 20102
YAMAL 601               
1 44307U 19031A   24303.50302578  .00000129  00000+0  00000+0 0  9994
2 44307   0.0111 228.7038 0002204 353.3616  46.3312  1.00271176 19945
AT&T T-16               
1 44333U 19034A   24303.54472840 -.00000105  00000+0  00000+0 0  9995
2 44333   0.0220 253.4884 0000947 196.5464  43.5660  1.00267575 19661
EUTELSAT 7C             
1 44334U 19034B   24302.20733413  .00000051  00000+0  00000+0 0  9993
2 44334   0.0685 191.9345 0003172   8.3803 278.3792  1.00271765   845
BEIDOU-3 IGSO-2         
1 44337U 19035A   24303.56927841 -.00000066  00000+0  00000+0 0  9994
2 44337  55.1827 164.0915 0034561 201.2501 355.2191  1.00255685 19690
COSMOS 2539             
1 44457U 19048A   24301.56493935  .00000082  00000+0  00000+0 0  9998
2 44457   0.0291 118.9518 0000402 267.7940 225.0513  1.00275156 19232
EDRS-C                  
1 44475U 19049A   24302.80880057  .00000160  00000+0  00000+0 0  9999
2 44475   0.0579 248.2767 0000793 330.6682 141.0777  1.00273998 19231
INTELSAT 39 (IS-39)     
1 44476U 19049B   24303.00520777  .00000040  00000+0  00000+0 0  9990
2 44476   0.0169 261.3047 0000579 164.4797  35.8904  1.00271050 19156
AMOS-17                 
1 44479U 19050A   24303.56818611  .00000119  00000+0  00000+0 0  9990
2 44479   0.0021 110.5119 0002322 105.7262  43.7143  1.00273205 19218
AEHF-5 (USA 292)        
1 44481U 19051A   24303.63592485 -.00000228  00000+0  00000+0 0  9992
2 44481   2.4393 309.6696 0055198  10.0742  37.7002  1.00270903 19297
EUTELSAT 5 WEST B       
1 44624U 19067A   24303.56366833 -.00000033  00000+0  00000+0 0  9990
2 44624   0.0687  19.4952 0003194 200.3648  16.4357  1.00271153 18479
MEV-1                   
1 44625U 19067B   24303.34490338 -.00000194  00000+0  00000+0 0  9993
2 44625   0.0630  80.8324 0000538 161.6485 252.3868  1.00270775 18309
TJS-4                   
1 44637U 19070A   24303.58139194 -.00000162  00000+0  00000+0 0  9991
2 44637   0.0776 291.0948 0001387 227.8933 172.2145  1.00278355 18497
BEIDOU-3 IGSO-3         
1 44709U 19073A   24303.36257420 -.00000185  00000+0  00000+0 0  9998
2 44709  55.8253 287.3012 0040842 191.1237 168.7376  1.00261419 18482
TIBA-1                  
1 44800U 19080A   24303.57183510  .00000164  00000+0  00000+0 0  9995
2 44800   0.0605 344.2999 0002573 234.6724  60.8351  1.00274706 18081
INMARSAT GX5            
1 44801U 19080B   24303.56696979  .00000084  00000+0  00000+0 0  9994
2 44801   0.0487  44.7703 0002231 190.7717  17.9615  1.00271524   824
JCSAT-18 (KACIFIC 1)    
1 44868U 19091A   24300.16258185 -.00000205  00000+0  00000+0 0  9991
2 44868   0.0267 353.1317 0000479 273.0535 337.3901  1.00273461 18004
ELEKTRO-L 3             
1 44903U 19095A   24303.56854887 -.00000089  00000+0  00000+0 0  9993
2 44903   0.0538  47.9760 0001617 208.6413  62.5232  1.00272435 17721
SHIJIAN-20 (SJ-20)      
1 44910U 19097A   24303.36488588 -.00000059  00000+0  00000+0 0  9999
2 44910   3.3855  82.3253 0009254 131.6364  28.6934  1.00273493 17729
TJS-5                   
1 44978U 20002A   24303.57144529 -.00000333  00000+0  00000+0 0  9993
2 44978   0.1217  93.1963 0004809 113.6140 144.8082  1.00269214 17722
GSAT-30                 
1 45026U 20005A   24303.39806319 -.00000157  00000+0  00000+0 0  9997
2 45026   0.0099 188.1582 0002240 348.8812  87.5089  1.00271619 17532
EUTELSAT KONNECT        
1 45027U 20005B   24302.13591843  .00000052  00000+0  00000+0 0  9995
2 45027   0.0611  83.2975 0000702 223.3046 146.5489  1.00268868 18332
JCSAT-17                
1 45245U 20013A   24303.52965830 -.00000317  00000+0  00000+0 0  9996
2 45245   5.5253 351.0949 0003353 227.1522 146.7878  1.00271149 17260
GEO-KOMPSAT-2B          
1 45246U 20013B   24300.44563281 -.00000348  00000+0  00000+0 0  9993
2 45246   0.0166 277.7019 0002002 329.3708  76.9523  1.00272513 17275
BEIDOU-3 G2             
1 45344U 20017A   24303.58069691 -.00000132  00000+0  00000+0 0  9991
2 45344   2.4986  34.3254 0004118 205.1043  88.0776  1.00271710 17284
AEHF-6 (USA 298)        
1 45465U 20022B   24303.60107522 -.00000295  00000+0  00000+0 0  9990
2 45465   3.9116 298.2561 0045890   1.8287  92.4640  1.00275949 17045
BEIDOU-3 G3             
1 45807U 20040A   24303.57468618 -.00000344  00000+0  00000+0 0  9997
2 45807   1.0362  54.6808 0003093 302.0656 359.0923  1.00275153 16097
APSTAR-6D               
1 45863U 20045A   24302.87592535 -.00000312  00000+0  00000+0 0  9997
2 45863   0.0151 222.8364 0003838  13.1296 251.0963  1.00270129 15886
KOREASAT 116            
1 45920U 20048A   24303.51640536 -.00000353  00000+0  00000+0 0  9996
2 45920   0.0136 279.0697 0000902 288.0762 133.3324  1.00273761 15660
EXPRESS 103             
1 45985U 20053A   24303.36949056 -.00000273  00000+0  00000+0 0  9996
2 45985   0.0210 252.3084 0000299 317.0163  58.4068  1.00271602 15670
EXPRESS 80              
1 45986U 20053B   24302.67361070 -.00000131  00000+0  00000+0 0  9997
2 45986   0.0234 272.9697 0000198 118.7230 328.3363  1.00272195 15657
BSAT-4B                 
1 46112U 20056A   24295.60697722 -.00000356  00000+0  00000+0 0  9991
2 46112   0.0874 104.3441 0003287  78.2473 176.3066  1.00268725 15357
MEV-2                   
1 46113U 20056B   24303.41715962 -.00000003  00000+0  00000+0 0  9997
2 46113   0.0065 238.4340 0000500   4.7278 304.2505  1.00268592 16217
GALAXY 30 (G-30)        
1 46114U 20056C   24303.53994997  .00000046  00000+0  00000+0 0  9994
2 46114   0.0144 248.7058 0001991 327.0703 251.9633  1.00270687 15324
GAOFEN-13 01            
1 46610U 20071A   24303.58241831 -.00000354  00000+0  00000+0 0  9992
2 46610   0.0404  11.0149 0016315 186.2784 168.5131  1.00271893 14949
TIANTONG-1 2            
1 46916U 20082A   24303.59111602 -.00000350  00000+0  00000+0 0  9992
2 46916   2.0294 294.7414 0003895 326.6861 114.7326  1.00272058 14681
LUCAS (JDRS-1)          
1 47202U 20089A   24303.53035413 -.00000227  00000+0  00000+0 0  9990
2 47202   0.0318  94.9378 0002478 120.9343 104.2001  1.00273770 14440
SXM-7                   
1 47240U 20096A   24298.62064508 -.00000213  00000+0  00000+0 0  9995
2 47240   0.0189 139.6725 0004392 350.0387  42.0578  1.00270925 14315
CMS-01                  
1 47256U 20099A   24303.58130506 -.00000156  00000+0  00000+0 0  9995
2 47256   0.0554  85.6127 0008162 174.1642  70.9139  1.00271485 14227
TURKSAT 5A              
1 47306U 21001A   24302.99877861  .00000161  00000+0  00000+0 0  9996
2 47306   0.0425  66.0206 0000151 287.1941  75.1051  1.00271730 13983
